{
  "type": "FeatureCollection",
  "features": [
    {
      "type": "Feature",
      "properties": {
        "norad_id": 35901,
        "name": "COSMOS 2251 DEB",
        "group": "cosmos-2251-debris",
        "lat": -72.13782173800938,
        "lon": -23.845417567675273,
        "alt_km": 555.3083221253337,
        "timestamp": "2025-12-04T21:36:16.268839+00:00",
        "meta_object_name": "COSMOS 2251 DEB",
        "meta_object_id": "1993-036AUQ",
        "meta_epoch": "2025-12-04T10:52:45.006816",
        "meta_mean_motion": 15.05869442,
        "meta_eccentricity": 0.00061109,
        "meta_inclination": 74.0123,
        "meta_ra_of_asc_node": 39.9052,
        "meta_arg_of_pericenter": 7.2934,
        "meta_mean_anomaly": 9.1516,
        "meta_ephemeris_type": 0,
        "meta_classification_type": "U",
        "meta_norad_cat_id": 35901,
        "meta_element_set_no": 999,
        "meta_rev_at_epoch": 86002,
        "meta_bstar": 0.0079953106,
        "meta_mean_motion_dot": 0.00118128,
        "meta_mean_motion_ddot": 0,
        "tle_line1": "1 35901U 93036AUQ 25338.45329869  .00118128  00000+0  79953-2 0  9991",
        "tle_line2": "2 35901  74.0123  39.9052 0006110   7.2934   9.1516 15.05869442860020"
      },
      "geometry": {
        "type": "Point",
        "coordinates": [
          -23.845417567675273,
          -72.13782173800938
        ]
      }
    },
    {
      "type": "Feature",
      "properties": {
        "norad_id": 35902,
        "name": "COSMOS 2251 DEB",
        "group": "cosmos-2251-debris",
        "lat": -65.73695614395514,
        "lon": -150.77513956549237,
        "alt_km": 791.4551243651222,
        "timestamp": "2025-12-04T21:36:16.268849+00:00",
        "meta_object_name": "COSMOS 2251 DEB",
        "meta_object_id": "1993-036AUR",
        "meta_epoch": "2025-12-01T03:04:00.207552",
        "meta_mean_motion": 14.26791124,
        "meta_eccentricity": 0.01016301,
        "meta_inclination": 73.9836,
        "meta_ra_of_asc_node": 255.6555,
        "meta_arg_of_pericenter": 12.6385,
        "meta_mean_anomaly": 347.7274,
        "meta_ephemeris_type": 0,
        "meta_classification_type": "U",
        "meta_norad_cat_id": 35902,
        "meta_element_set_no": 999,
        "meta_rev_at_epoch": 60964,
        "meta_bstar": 0.0014097892,
        "meta_mean_motion_dot": 3.584e-05,
        "meta_mean_motion_ddot": 0,
        "tle_line1": "1 35902U 93036AUR 25335.12778018  .00003584  00000+0  14098-2 0  9995",
        "tle_line2": "2 35902  73.9836 255.6555 0101630  12.6385 347.7274 14.26791124609642"
      },
      "geometry": {
        "type": "Point",
        "coordinates": [
          -150.77513956549237,
          -65.73695614395514
        ]
      }
    },
    {
      "type": "Feature",
      "properties": {
        "norad_id": 35905,
        "name": "COSMOS 2251 DEB",
        "group": "cosmos-2251-debris",
        "lat": 10.945147940765413,
        "lon": -130.10045981093364,
        "alt_km": 542.3411233050792,
        "timestamp": "2025-12-04T21:36:16.268859+00:00",
        "meta_object_name": "COSMOS 2251 DEB",
        "meta_object_id": "1993-036AUU",
        "meta_epoch": "2025-12-03T23:07:38.819136",
        "meta_mean_motion": 14.98817132,
        "meta_eccentricity": 0.00910194,
        "meta_inclination": 74.0324,
        "meta_ra_of_asc_node": 228.6251,
        "meta_arg_of_pericenter": 310.7702,
        "meta_mean_anomaly": 48.561,
        "meta_ephemeris_type": 0,
        "meta_classification_type": "U",
        "meta_norad_cat_id": 35905,
        "meta_element_set_no": 999,
        "meta_rev_at_epoch": 88451,
        "meta_bstar": 0.0011414912,
        "meta_mean_motion_dot": 0.00015,
        "meta_mean_motion_ddot": 0,
        "tle_line1": "1 35905U 93036AUU 25337.96364374  .00015000  00000+0  11415-2 0  9994",
        "tle_line2": "2 35905  74.0324 228.6251 0091019 310.7702  48.5610 14.98817132884514"
      },
      "geometry": {
        "type": "Point",
        "coordinates": [
          -130.10045981093364,
          10.945147940765413
        ]
      }
    },
    {
      "type": "Feature",
      "properties": {
        "norad_id": 35959,
        "name": "COSMOS 2251 DEB",
        "group": "cosmos-2251-debris",
        "lat": 9.557106384331346,
        "lon": 143.65341828788513,
        "alt_km": 786.9426272166465,
        "timestamp": "2025-12-04T21:36:16.268869+00:00",
        "meta_object_name": "COSMOS 2251 DEB",
        "meta_object_id": "1993-036AUZ",
        "meta_epoch": "2025-12-04T05:44:56.810688",
        "meta_mean_motion": 14.3412652,
        "meta_eccentricity": 0.002123,
        "meta_inclination": 74.0321,
        "meta_ra_of_asc_node": 327.6255,
        "meta_arg_of_pericenter": 50.7905,
        "meta_mean_anomaly": 309.5127,
        "meta_ephemeris_type": 0,
        "meta_classification_type": "U",
        "meta_norad_cat_id": 35959,
        "meta_element_set_no": 999,
        "meta_rev_at_epoch": 84806,
        "meta_bstar": 0.00022957576,
        "meta_mean_motion_dot": 6.18e-06,
        "meta_mean_motion_ddot": 0,
        "tle_line1": "1 35959U 93036AUZ 25338.23954642  .00000618  00000+0  22958-3 0  9991",
        "tle_line2": "2 35959  74.0321 327.6255 0021230  50.7905 309.5127 14.34126520848065"
      },
      "geometry": {
        "type": "Point",
        "coordinates": [
          143.65341828788513,
          9.557106384331346
        ]
      }
    },
    {
      "type": "Feature",
      "properties": {
        "norad_id": 35961,
        "name": "COSMOS 2251 DEB",
        "group": "cosmos-2251-debris",
        "lat": -12.910550610204423,
        "lon": 41.7579785498435,
        "alt_km": 771.7053552687657,
        "timestamp": "2025-12-04T21:36:16.268879+00:00",
        "meta_object_name": "COSMOS 2251 DEB",
        "meta_object_id": "1993-036AVB",
        "meta_epoch": "2025-11-29T09:08:47.173056",
        "meta_mean_motion": 14.05319505,
        "meta_eccentricity": 0.01924432,
        "meta_inclination": 73.9254,
        "meta_ra_of_asc_node": 227.671,
        "meta_arg_of_pericenter": 163.9834,
        "meta_mean_anomaly": 196.7506,
        "meta_ephemeris_type": 0,
        "meta_classification_type": "U",
        "meta_norad_cat_id": 35961,
        "meta_element_set_no": 999,
        "meta_rev_at_epoch": 62494,
        "meta_bstar": 0.00062484461,
        "meta_mean_motion_dot": 1.171e-05,
        "meta_mean_motion_ddot": 0,
        "tle_line1": "1 35961U 93036AVB 25333.38110154  .00001171  00000+0  62484-3 0  9990",
        "tle_line2": "2 35961  73.9254 227.6710 0192443 163.9834 196.7506 14.05319505624940"
      },
      "geometry": {
        "type": "Point",
        "coordinates": [
          41.7579785498435,
          -12.910550610204423
        ]
      }
    },
    {
      "type": "Feature",
      "properties": {
        "norad_id": 35979,
        "name": "COSMOS 2251 DEB",
        "group": "cosmos-2251-debris",
        "lat": -65.43755291465799,
        "lon": -145.13763223393,
        "alt_km": 659.7269959902715,
        "timestamp": "2025-12-04T21:36:16.268889+00:00",
        "meta_object_name": "COSMOS 2251 DEB",
        "meta_object_id": "1993-036AVV",
        "meta_epoch": "2025-12-04T12:57:50.431392",
        "meta_mean_motion": 14.74469287,
        "meta_eccentricity": 0.00587078,
        "meta_inclination": 74.011,
        "meta_ra_of_asc_node": 254.4216,
        "meta_arg_of_pericenter": 28.4966,
        "meta_mean_anomaly": 150.8593,
        "meta_ephemeris_type": 0,
        "meta_classification_type": "U",
        "meta_norad_cat_id": 35979,
        "meta_element_set_no": 999,
        "meta_rev_at_epoch": 88512,
        "meta_bstar": 0.00243482,
        "meta_mean_motion_dot": 0.00016643,
        "meta_mean_motion_ddot": 0,
        "tle_line1": "1 35979U 93036AVV 25338.54016703  .00016643  00000+0  24348-2 0  9993",
        "tle_line2": "2 35979  74.0110 254.4216 0058707  28.4966 150.8593 14.74469287885121"
      },
      "geometry": {
        "type": "Point",
        "coordinates": [
          -145.13763223393,
          -65.43755291465799
        ]
      }
    },
    {
      "type": "Feature",
      "properties": {
        "norad_id": 35980,
        "name": "COSMOS 2251 DEB",
        "group": "cosmos-2251-debris",
        "lat": -56.742919633397925,
        "lon": -16.1506884867482,
        "alt_km": 670.7006397362784,
        "timestamp": "2025-12-04T21:36:16.268898+00:00",
        "meta_object_name": "COSMOS 2251 DEB",
        "meta_object_id": "1993-036AVW",
        "meta_epoch": "2025-12-02T19:08:08.015136",
        "meta_mean_motion": 14.59062146,
        "meta_eccentricity": 0.00537712,
        "meta_inclination": 73.91,
        "meta_ra_of_asc_node": 141.7735,
        "meta_arg_of_pericenter": 277.5645,
        "meta_mean_anomaly": 81.9413,
        "meta_ephemeris_type": 0,
        "meta_classification_type": "U",
        "meta_norad_cat_id": 35980,
        "meta_element_set_no": 999,
        "meta_rev_at_epoch": 61341,
        "meta_bstar": 0.002036555,
        "meta_mean_motion_dot": 9.752e-05,
        "meta_mean_motion_ddot": 0,
        "tle_line1": "1 35980U 93036AVW 25336.79731499  .00009752  00000+0  20366-2 0  9995",
        "tle_line2": "2 35980  73.9100 141.7735 0053771 277.5645  81.9413 14.59062146613413"
      },
      "geometry": {
        "type": "Point",
        "coordinates": [
          -16.1506884867482,
          -56.742919633397925
        ]
      }
    }
  ]
}